{
  "norad_id": 27004,
  "name": "MAROC-TUBSAT",
  "history": [
    {
      "epoch": "2026-03-28T17:57:43.291872Z",
      "apogee_km": 1013.155448812382,
      "perigee_km": 984.1278248764002,
      "latitude_deg": 20.233887849089214,
      "longitude_deg": 163.8725331094311,
      "height_km": 988.403066173873,
      "semi_major_axis_km": 7376.778636844391,
      "eccentricity": 0.0019675,
      "inclination_deg": 99.8036,
      "raan_deg": 263.1001,
      "arg_perigee_deg": 351.2115,
      "mean_anomaly_deg": 29.2198,
      "mean_motion_rev_day": 13.70258911
    },
    {
      "epoch": "2026-03-29T01:25:48.717696Z",
      "apogee_km": 1013.1486766576454,
      "perigee_km": 984.1343314455098,
      "latitude_deg": 63.51808828755546,
      "longitude_deg": -104.3220748367402,
      "height_km": 1017.6683728990456,
      "semi_major_axis_km": 7376.778504051577,
      "eccentricity": 0.0019666,
      "inclination_deg": 99.8036,
      "raan_deg": 263.417,
      "arg_perigee_deg": 350.4086,
      "mean_anomaly_deg": 124.226,
      "mean_motion_rev_day": 13.70258948
    },
    {
      "epoch": "2026-03-30T01:58:07.620096Z",
      "apogee_km": 1013.1263377516916,
      "perigee_km": 984.1562540280729,
      "latitude_deg": 62.58674479036971,
      "longitude_deg": -113.19552008515461,
      "height_km": 1018.2162165674722,
      "semi_major_axis_km": 7376.7782958898815,
      "eccentricity": 0.0019636,
      "inclination_deg": 99.8037,
      "raan_deg": 264.4585,
      "arg_perigee_deg": 347.7567,
      "mean_anomaly_deg": 127.8927,
      "mean_motion_rev_day": 13.70259006
    },
    {
      "epoch": "2026-03-30T05:48:01.773216Z",
      "apogee_km": 1013.1200621450689,
      "perigee_km": 984.1623717189377,
      "latitude_deg": -2.8355291073995343,
      "longitude_deg": 169.48962857924002,
      "height_km": 1015.8240206090001,
      "semi_major_axis_km": 7376.778216932003,
      "eccentricity": 0.00196276,
      "inclination_deg": 99.8037,
      "raan_deg": 264.6211,
      "arg_perigee_deg": 347.3584,
      "mean_anomaly_deg": 195.4476,
      "mean_motion_rev_day": 13.70259028
    },
    {
      "epoch": "2026-03-30T12:15:50.849280Z",
      "apogee_km": 1013.1126890610058,
      "perigee_km": 984.1694576834443,
      "latitude_deg": 68.666293526317,
      "longitude_deg": -133.08096645242813,
      "height_km": 1008.9541914726057,
      "semi_major_axis_km": 7376.778073372225,
      "eccentricity": 0.00196178,
      "inclination_deg": 99.8037,
      "raan_deg": 264.8954,
      "arg_perigee_deg": 346.6547,
      "mean_anomaly_deg": 83.9894,
      "mean_motion_rev_day": 13.70259068
    },
    {
      "epoch": "2026-03-30T17:14:30.160896Z",
      "apogee_km": 1013.106762466321,
      "perigee_km": 984.1753340322084,
      "latitude_deg": 13.07100758648458,
      "longitude_deg": 176.08760207202855,
      "height_km": 987.8271772733626,
      "semi_major_axis_km": 7376.778048249264,
      "eccentricity": 0.00196098,
      "inclination_deg": 99.8037,
      "raan_deg": 265.1067,
      "arg_perigee_deg": 346.12,
      "mean_anomaly_deg": 27.0807,
      "mean_motion_rev_day": 13.70259075
    },
    {
      "epoch": "2026-03-31T10:50:13.373088Z",
      "apogee_km": 1013.0897312469579,
      "perigee_km": 984.1919417502577,
      "latitude_deg": 27.601635318482323,
      "longitude_deg": -90.68726295949102,
      "height_km": 991.4830350730028,
      "semi_major_axis_km": 7376.777836498607,
      "eccentricity": 0.0019587,
      "inclination_deg": 99.8037,
      "raan_deg": 265.8535,
      "arg_perigee_deg": 344.2215,
      "mean_anomaly_deg": 43.6279,
      "mean_motion_rev_day": 13.70259134
    },
    {
      "epoch": "2026-04-01T18:19:20.428896Z",
      "apogee_km": 1013.0601342353757,
      "perigee_km": 984.2213593121387,
      "latitude_deg": 15.812213876893617,
      "longitude_deg": 159.44245126481175,
      "height_km": 988.9945570231464,
      "semi_major_axis_km": 7376.777746773757,
      "eccentricity": 0.0019547,
      "inclination_deg": 99.8039,
      "raan_deg": 267.1898,
      "arg_perigee_deg": 340.8168,
      "mean_anomaly_deg": 35.1259,
      "mean_motion_rev_day": 13.70259159
    },
    {
      "epoch": "2026-04-02T10:06:13.034016Z",
      "apogee_km": 1013.0470720939093,
      "perigee_km": 984.2339692403857,
      "latitude_deg": 17.78613705105992,
      "longitude_deg": -77.62584976101286,
      "height_km": 989.6691097125988,
      "semi_major_axis_km": 7376.777520667148,
      "eccentricity": 0.00195296,
      "inclination_deg": 99.8039,
      "raan_deg": 267.8596,
      "arg_perigee_deg": 339.1015,
      "mean_anomaly_deg": 38.8245,
      "mean_motion_rev_day": 13.70259222
    },
    {
      "epoch": "2026-04-02T22:54:22.758048Z",
      "apogee_km": 1013.0327648412358,
      "perigee_km": 984.2479893735717,
      "latitude_deg": 50.920521598699644,
      "longitude_deg": -74.26620159661891,
      "height_km": 1019.2270299908668,
      "semi_major_axis_km": 7376.7773771074035,
      "eccentricity": 0.00195104,
      "inclination_deg": 99.804,
      "raan_deg": 268.403,
      "arg_perigee_deg": 337.7185,
      "mean_anomaly_deg": 150.2949,
      "mean_motion_rev_day": 13.70259262
    },
    {
      "epoch": "2026-04-03T17:37:15.516768Z",
      "apogee_km": 1013.0130923697216,
      "perigee_km": 984.2672670558159,
      "latitude_deg": 12.51441170714943,
      "longitude_deg": 170.63168526843234,
      "height_km": 989.2126124949477,
      "semi_major_axis_km": 7376.777179712768,
      "eccentricity": 0.0019484,
      "inclination_deg": 99.804,
      "raan_deg": 269.1973,
      "arg_perigee_deg": 335.6932,
      "mean_anomaly_deg": 36.9137,
      "mean_motion_rev_day": 13.70259317
    },
    {
      "epoch": "2026-04-04T11:20:59.301312Z",
      "apogee_km": 1012.9950157701287,
      "perigee_km": 984.2850421799803,
      "latitude_deg": 53.82574774962474,
      "longitude_deg": -106.68754788533298,
      "height_km": 1005.1448841814287,
      "semi_major_axis_km": 7376.777028975054,
      "eccentricity": 0.00194597,
      "inclination_deg": 99.8041,
      "raan_deg": 269.9497,
      "arg_perigee_deg": 333.7754,
      "mean_anomaly_deg": 80.9046,
      "mean_motion_rev_day": 13.70259359
    },
    {
      "epoch": "2026-04-05T11:40:58.623168Z",
      "apogee_km": 1012.9703990116113,
      "perigee_km": 984.3094077089863,
      "latitude_deg": 13.40724524926386,
      "longitude_deg": -100.40196792726972,
      "height_km": 990.1294227630988,
      "semi_major_axis_km": 7376.776903360299,
      "eccentricity": 0.00194265,
      "inclination_deg": 99.8043,
      "raan_deg": 270.9825,
      "arg_perigee_deg": 331.1309,
      "mean_anomaly_deg": 42.3616,
      "mean_motion_rev_day": 13.70259394
    },
    {
      "epoch": "2026-04-06T02:10:34.832352Z",
      "apogee_km": 1012.9558667611118,
      "perigee_km": 984.3239399594859,
      "latitude_deg": 66.96483067730581,
      "longitude_deg": -111.58620490178012,
      "height_km": 1021.3336478026798,
      "semi_major_axis_km": 7376.776903360299,
      "eccentricity": 0.00194068,
      "inclination_deg": 99.8043,
      "raan_deg": 271.5977,
      "arg_perigee_deg": 329.5582,
      "mean_anomaly_deg": 141.3442,
      "mean_motion_rev_day": 13.70259394
    },
    {
      "epoch": "2026-04-07T11:03:40.749120Z",
      "apogee_km": 1012.9278621311914,
      "perigee_km": 984.3515569781848,
      "latitude_deg": 26.34528722209257,
      "longitude_deg": -93.54765792157035,
      "height_km": 994.7500229124587,
      "semi_major_axis_km": 7376.776709554688,
      "eccentricity": 0.00193691,
      "inclination_deg": 99.8046,
      "raan_deg": 272.9934,
      "arg_perigee_deg": 325.962,
      "mean_anomaly_deg": 60.5749,
      "mean_motion_rev_day": 13.70259448
    },
    {
      "epoch": "2026-04-07T18:02:01.864608Z",
      "apogee_km": 1012.9196882928054,
      "perigee_km": 984.3597595285128,
      "latitude_deg": 18.807289415583988,
      "longitude_deg": 163.40126870549238,
      "height_km": 992.5158805988519,
      "semi_major_axis_km": 7376.776723910659,
      "eccentricity": 0.0019358,
      "inclination_deg": 99.8046,
      "raan_deg": 273.2894,
      "arg_perigee_deg": 325.21,
      "mean_anomaly_deg": 53.7099,
      "mean_motion_rev_day": 13.70259444
    },
    {
      "epoch": "2026-04-08T11:45:37.787616Z",
      "apogee_km": 1012.9038228801,
      "perigee_km": 984.3754670255421,
      "latitude_deg": 59.397982329519486,
      "longitude_deg": -116.01597271360153,
      "height_km": 1010.4640969386631,
      "semi_major_axis_km": 7376.776644952821,
      "eccentricity": 0.00193366,
      "inclination_deg": 99.8047,
      "raan_deg": 274.0418,
      "arg_perigee_deg": 323.2709,
      "mean_anomaly_deg": 97.2736,
      "mean_motion_rev_day": 13.70259466
    },
    {
      "epoch": "2026-04-09T10:30:33.765120Z",
      "apogee_km": 1012.8833137971314,
      "perigee_km": 984.3955310734427,
      "latitude_deg": 53.07754189771952,
      "longitude_deg": -93.54537223013959,
      "height_km": 1008.0150307405875,
      "semi_major_axis_km": 7376.776422435287,
      "eccentricity": 0.00193091,
      "inclination_deg": 99.8048,
      "raan_deg": 275.0073,
      "arg_perigee_deg": 320.7891,
      "mean_anomaly_deg": 93.1098,
      "mean_motion_rev_day": 13.70259528
    },
    {
      "epoch": "2026-04-10T10:55:16.484160Z",
      "apogee_km": 1012.861545321156,
      "perigee_km": 984.4166965987351,
      "latitude_deg": 28.67382717926006,
      "longitude_deg": -91.85889106979099,
      "height_km": 997.4286288171018,
      "semi_major_axis_km": 7376.776120959946,
      "eccentricity": 0.001928,
      "inclination_deg": 99.8049,
      "raan_deg": 276.0435,
      "arg_perigee_deg": 318.1189,
      "mean_anomaly_deg": 70.7651,
      "mean_motion_rev_day": 13.70259612
    }
  ]
}